[{"OBJECT_NAME":"ONEWEB-0035","OBJECT_ID":"2020-008N","EPOCH":"2025-12-25T18:02:54.877920","MEAN_MOTION":13.10368983,"ECCENTRICITY":0.0001622,"INCLINATION":87.879,"RA_OF_ASC_NODE":70.8603,"ARG_OF_PERICENTER":101.7731,"MEAN_ANOMALY":258.3578,"EPHEMERIS_TYPE":0,"CLASSIFICATION_TYPE":"U","NORAD_CAT_ID":45143,"ELEMENT_SET_NO":999,"REV_AT_EPOCH":28522,"BSTAR":-0.00016243,"MEAN_MOTION_DOT":-4.4e-7,"MEAN_MOTION_DDOT":0},{"OBJECT_NAME":"ONEWEB-0036","OBJECT_ID":"2020-008P","EPOCH":"2025-12-25T17:48:35.538336","MEAN_MOTION":13.10369962,"ECCENTRICITY":0.0002014,"INCLINATION":87.8803,"RA_OF_ASC_NODE":70.8214,"ARG_OF_PERICENTER":109.0331,"MEAN_ANOMALY":251.1014,"EPHEMERIS_TYPE":0,"CLASSIFICATION_TYPE":"U","NORAD_CAT_ID":45144,"ELEMENT_SET_NO":999,"REV_AT_EPOCH":28565,"BSTAR":0.0012372,"MEAN_MOTION_DOT":4.45e-6,"MEAN_MOTION_DDOT":0},{"OBJECT_NAME":"ONEWEB-0038","OBJECT_ID":"2020-008Q","EPOCH":"2025-12-25T14:14:57.571296","MEAN_MOTION":13.11418496,"ECCENTRICITY":0.0002702,"INCLINATION":87.8853,"RA_OF_ASC_NODE":55.6283,"ARG_OF_PERICENTER":62.6946,"MEAN_ANOMALY":297.4457,"EPHEMERIS_TYPE":0,"CLASSIFICATION_TYPE":"U","NORAD_CAT_ID":45145,"ELEMENT_SET_NO":999,"REV_AT_EPOCH":28757,"BSTAR":-0.00012817,"MEAN_MOTION_DOT":-3.3e-7,"MEAN_MOTION_DDOT":0},{"OBJECT_NAME":"ONEWEB-0039","OBJECT_ID":"2020-008R","EPOCH":"2025-12-25T17:23:29.670144","MEAN_MOTION":13.10373988,"ECCENTRICITY":0.0002375,"INCLINATION":87.881,"RA_OF_ASC_NODE":70.8416,"ARG_OF_PERICENTER":103.3417,"MEAN_ANOMALY":256.7975,"EPHEMERIS_TYPE":0,"CLASSIFICATION_TYPE":"U","NORAD_CAT_ID":45146,"ELEMENT_SET_NO":999,"REV_AT_EPOCH":28544,"BSTAR":0.0016299,"MEAN_MOTION_DOT":5.82e-6,"MEAN_MOTION_DDOT":0},{"OBJECT_NAME":"ONEWEB-0040","OBJECT_ID":"2020-008S","EPOCH":"2025-12-25T13:34:06.321216","MEAN_MOTION":13.1037559,"ECCENTRICITY":0.0001801,"INCLINATION":87.88,"RA_OF_ASC_NODE":70.8975,"ARG_OF_PERICENTER":101.8665,"MEAN_ANOMALY":258.2665,"EPHEMERIS_TYPE":0,"CLASSIFICATION_TYPE":"U","NORAD_CAT_ID":45147,"ELEMENT_SET_NO":999,"REV_AT_EPOCH":28512,"BSTAR":0.0010194,"MEAN_MOTION_DOT":3.69e-6,"MEAN_MOTION_DDOT":0},{"OBJECT_NAME":"ONEWEB-0043","OBJECT_ID":"2020-008U","EPOCH":"2025-12-25T17:16:19.441344","MEAN_MOTION":13.10375482,"ECCENTRICITY":0.0002299,"INCLINATION":87.88,"RA_OF_ASC_NODE":70.8478,"ARG_OF_PERICENTER":105.3704,"MEAN_ANOMALY":254.7677,"EPHEMERIS_TYPE":0,"CLASSIFICATION_TYPE":"U","NORAD_CAT_ID":45149,"ELEMENT_SET_NO":999,"REV_AT_EPOCH":28546,"BSTAR":0.0012259,"MEAN_MOTION_DOT":4.41e-6,"MEAN_MOTION_DDOT":0},{"OBJECT_NAME":"ONEWEB-0044","OBJECT_ID":"2020-008V","EPOCH":"2025-12-25T17:56:57.055776","MEAN_MOTION":13.10369698,"ECCENTRICITY":0.000199,"INCLINATION":87.8796,"RA_OF_ASC_NODE":70.8345,"ARG_OF_PERICENTER":106.8091,"MEAN_ANOMALY":253.3255,"EPHEMERIS_TYPE":0,"CLASSIFICATION_TYPE":"U","NORAD_CAT_ID":45150,"ELEMENT_SET_NO":999,"REV_AT_EPOCH":28576,"BSTAR":0.00065041,"MEAN_MOTION_DOT":2.4e-6,"MEAN_MOTION_DDOT":0},{"OBJECT_NAME":"ONEWEB-0045","OBJECT_ID":"2020-008W","EPOCH":"2025-12-25T15:57:18.781344","MEAN_MOTION":13.11419883,"ECCENTRICITY":0.0001868,"INCLINATION":87.8859,"RA_OF_ASC_NODE":55.599,"ARG_OF_PERICENTER":98.8342,"MEAN_ANOMALY":261.2998,"EPHEMERIS_TYPE":0,"CLASSIFICATION_TYPE":"U","NORAD_CAT_ID":45151,"ELEMENT_SET_NO":999,"REV_AT_EPOCH":28766,"BSTAR":-0.00066336,"MEAN_MOTION_DOT":-2.22e-6,"MEAN_MOTION_DDOT":0},{"OBJECT_NAME":"ONEWEB-0047","OBJECT_ID":"2020-008X","EPOCH":"2025-12-25T15:57:26.324928","MEAN_MOTION":13.10370603,"ECCENTRICITY":0.0001883,"INCLINATION":87.8794,"RA_OF_ASC_NODE":70.8593,"ARG_OF_PERICENTER":106.6197,"MEAN_ANOMALY":253.5137,"EPHEMERIS_TYPE":0,"CLASSIFICATION_TYPE":"U","NORAD_CAT_ID":45152,"ELEMENT_SET_NO":999,"REV_AT_EPOCH":28547,"BSTAR":0.0011834,"MEAN_MOTION_DOT":4.26e-6,"MEAN_MOTION_DDOT":0},{"OBJECT_NAME":"ONEWEB-0048","OBJECT_ID":"2020-008Y","EPOCH":"2025-12-25T17:40:13.609632","MEAN_MOTION":13.10376324,"ECCENTRICITY":0.0001658,"INCLINATION":87.8794,"RA_OF_ASC_NODE":70.8729,"ARG_OF_PERICENTER":101.9455,"MEAN_ANOMALY":258.1858,"EPHEMERIS_TYPE":0,"CLASSIFICATION_TYPE":"U","NORAD_CAT_ID":45153,"ELEMENT_SET_NO":999,"REV_AT_EPOCH":28509,"BSTAR":0.0017282,"MEAN_MOTION_DOT":6.16e-6,"MEAN_MOTION_DDOT":0},{"OBJECT_NAME":"ONEWEB-0049","OBJECT_ID":"2020-008Z","EPOCH":"2025-12-25T17:44:48.403968","MEAN_MOTION":13.10373268,"ECCENTRICITY":0.0001946,"INCLINATION":87.8792,"RA_OF_ASC_NODE":70.8609,"ARG_OF_PERICENTER":117.8305,"MEAN_ANOMALY":242.302,"EPHEMERIS_TYPE":0,"CLASSIFICATION_TYPE":"U","NORAD_CAT_ID":45154,"ELEMENT_SET_NO":999,"REV_AT_EPOCH":28531,"BSTAR":0.0014689,"MEAN_MOTION_DOT":5.25e-6,"MEAN_MOTION_DDOT":0},{"OBJECT_NAME":"ONEWEB-0051","OBJECT_ID":"2020-008AA","EPOCH":"2025-12-25T15:54:51.092640","MEAN_MOTION":13.11417255,"ECCENTRICITY":0.0001798,"INCLINATION":87.8842,"RA_OF_ASC_NODE":55.6184,"ARG_OF_PERICENTER":100.9611,"MEAN_ANOMALY":259.1719,"EPHEMERIS_TYPE":0,"CLASSIFICATION_TYPE":"U","NORAD_CAT_ID":45155,"ELEMENT_SET_NO":999,"REV_AT_EPOCH":28834,"BSTAR":-0.00098684,"MEAN_MOTION_DOT":-3.37e-6,"MEAN_MOTION_DDOT":0},{"OBJECT_NAME":"ONEWEB-0052","OBJECT_ID":"2020-008AB","EPOCH":"2025-12-25T17:36:38.608416","MEAN_MOTION":13.10371943,"ECCENTRICITY":0.0001988,"INCLINATION":87.8806,"RA_OF_ASC_NODE":70.8238,"ARG_OF_PERICENTER":117.6234,"MEAN_ANOMALY":242.5095,"EPHEMERIS_TYPE":0,"CLASSIFICATION_TYPE":"U","NORAD_CAT_ID":45156,"ELEMENT_SET_NO":999,"REV_AT_EPOCH":28522,"BSTAR":0.0017938,"MEAN_MOTION_DOT":6.39e-6,"MEAN_MOTION_DDOT":0},{"OBJECT_NAME":"ONEWEB-0053","OBJECT_ID":"2020-008AC","EPOCH":"2025-12-25T17:11:31.937568","MEAN_MOTION":13.10376212,"ECCENTRICITY":0.0001988,"INCLINATION":87.8798,"RA_OF_ASC_NODE":70.8719,"ARG_OF_PERICENTER":96.0202,"MEAN_ANOMALY":264.1152,"EPHEMERIS_TYPE":0,"CLASSIFICATION_TYPE":"U","NORAD_CAT_ID":45157,"ELEMENT_SET_NO":999,"REV_AT_EPOCH":28519,"BSTAR":0.00072247,"MEAN_MOTION_DOT":2.65e-6,"MEAN_MOTION_DDOT":0},{"OBJECT_NAME":"ONEWEB-0054","OBJECT_ID":"2020-008AD","EPOCH":"2025-12-25T18:01:43.572864","MEAN_MOTION":13.10369958,"ECCENTRICITY":0.0001726,"INCLINATION":87.8794,"RA_OF_ASC_NODE":70.8371,"ARG_OF_PERICENTER":106.2816,"MEAN_ANOMALY":253.8501,"EPHEMERIS_TYPE":0,"CLASSIFICATION_TYPE":"U","NORAD_CAT_ID":45158,"ELEMENT_SET_NO":999,"REV_AT_EPOCH":28531,"BSTAR":-5.3603e-5,"MEAN_MOTION_DOT":-6.0e-8,"MEAN_MOTION_DDOT":0},{"OBJECT_NAME":"ONEWEB-0056","OBJECT_ID":"2020-008AE","EPOCH":"2025-12-25T17:34:15.307104","MEAN_MOTION":13.10372678,"ECCENTRICITY":0.0001699,"INCLINATION":87.8802,"RA_OF_ASC_NODE":70.8398,"ARG_OF_PERICENTER":110.5218,"MEAN_ANOMALY":249.6092,"EPHEMERIS_TYPE":0,"CLASSIFICATION_TYPE":"U","NORAD_CAT_ID":45159,"ELEMENT_SET_NO":999,"REV_AT_EPOCH":28546,"BSTAR":0.0018335,"MEAN_MOTION_DOT":6.53e-6,"MEAN_MOTION_DDOT":0},{"OBJECT_NAME":"ONEWEB-0057","OBJECT_ID":"2020-008AF","EPOCH":"2025-12-25T17:45:12.098304","MEAN_MOTION":13.10371141,"ECCENTRICITY":0.0001954,"INCLINATION":87.8795,"RA_OF_ASC_NODE":70.8513,"ARG_OF_PERICENTER":107.387,"MEAN_ANOMALY":252.7471,"EPHEMERIS_TYPE":0,"CLASSIFICATION_TYPE":"U","NORAD_CAT_ID":45160,"ELEMENT_SET_NO":999,"REV_AT_EPOCH":28563,"BSTAR":0.0014956,"MEAN_MOTION_DOT":5.35e-6,"MEAN_MOTION_DDOT":0}]
