ONEWEB-0035             
1 45143U 20008N   25359.75202405 -.00000044  00000+0 -16243-3 0  9994
2 45143  87.8790  70.8603 0001622 101.7731 258.3578 13.10368983285222
ONEWEB-0036             
1 45144U 20008P   25359.74207799  .00000445  00000+0  12372-2 0  9996
2 45144  87.8803  70.8214 0002014 109.0331 251.1014 13.10369962285650
ONEWEB-0038             
1 45145U 20008Q   25359.59372189 -.00000033  00000+0 -12817-3 0  9996
2 45145  87.8853  55.6283 0002702  62.6946 297.4457 13.11418496287578
ONEWEB-0039             
1 45146U 20008R   25359.72464896  .00000582  00000+0  16299-2 0  9993
2 45146  87.8810  70.8416 0002375 103.3417 256.7975 13.10373988285443
ONEWEB-0040             
1 45147U 20008S   25359.56535094  .00000369  00000+0  10194-2 0  9996
2 45147  87.8800  70.8975 0001801 101.8665 258.2665 13.10375590285123
ONEWEB-0043             
1 45149U 20008U   25359.71966946  .00000441  00000+0  12259-2 0  9994
2 45149  87.8800  70.8478 0002299 105.3704 254.7677 13.10375482285469
ONEWEB-0044             
1 45150U 20008V   25359.74788259  .00000240  00000+0  65041-3 0  9993
2 45150  87.8796  70.8345 0001990 106.8091 253.3255 13.10369698285762
ONEWEB-0045             
1 45151U 20008W   25359.66480071 -.00000222  00000+0 -66336-3 0  9996
2 45151  87.8859  55.5990 0001868  98.8342 261.2998 13.11419883287668
ONEWEB-0047             
1 45152U 20008X   25359.66488802  .00000426  00000+0  11834-2 0  9993
2 45152  87.8794  70.8593 0001883 106.6197 253.5137 13.10370603285470
ONEWEB-0048             
1 45153U 20008Y   25359.73626863  .00000616  00000+0  17282-2 0  9997
2 45153  87.8794  70.8729 0001658 101.9455 258.1858 13.10376324285092
ONEWEB-0049             
1 45154U 20008Z   25359.73944912  .00000525  00000+0  14689-2 0  9993
2 45154  87.8792  70.8609 0001946 117.8305 242.3020 13.10373268285313
ONEWEB-0051             
1 45155U 20008AA  25359.66309135 -.00000337  00000+0 -98684-3 0  9999
2 45155  87.8842  55.6184 0001798 100.9611 259.1719 13.11417255288340
ONEWEB-0052             
1 45156U 20008AB  25359.73378019  .00000639  00000+0  17938-2 0  9990
2 45156  87.8806  70.8238 0001988 117.6234 242.5095 13.10371943285226
ONEWEB-0053             
1 45157U 20008AC  25359.71634187  .00000265  00000+0  72247-3 0  9990
2 45157  87.8798  70.8719 0001988  96.0202 264.1152 13.10376212285190
ONEWEB-0054             
1 45158U 20008AD  25359.75119876 -.00000006  00000+0 -53603-4 0  9999
2 45158  87.8794  70.8371 0001726 106.2816 253.8501 13.10369958285312
ONEWEB-0056             
1 45159U 20008AE  25359.73212161  .00000653  00000+0  18335-2 0  9996
2 45159  87.8802  70.8398 0001699 110.5218 249.6092 13.10372678285462
ONEWEB-0057             
1 45160U 20008AF  25359.73972336  .00000535  00000+0  14956-2 0  9999
2 45160  87.8795  70.8513 0001954 107.3870 252.7471 13.10371141285635
